{"type": "FeatureCollection", "crs": {"type": "name", "properties": {"name": "urn:ogc:def:crs:OGC:1.3:CRS84"}}, "features": [{"type": "Feature", "properties": {"khasra": "KHA001", "owner": "Vijay Mishra", "area_sqm": 38111.0, "area_ha": 3.811, "land_use": "Agriculture", "crop": "Mustard", "soil_type": "Sandy Loam", "irrigation": "Canal", "village": "Kundam", "tehsil": "Kundam", "district": "Jabalpur"}, "geometry": {"type": "Polygon", "coordinates": [[[80.338596, 23.206621], [80.340537, 23.207179], [80.339081, 23.208904], [80.33758, 23.207458], [80.338596, 23.206621]]]}}, {"type": "Feature", "properties": {"khasra": "KHA002", "owner": "Sanjay Lodhi", "area_sqm": 15671.0, "area_ha": 1.567, "land_use": "Agriculture", "crop": "Gram", "soil_type": "Medium Black Soil", "irrigation": "Canal", "village": "Kundam", "tehsil": "Kundam", "district": "Jabalpur"}, "geometry": {"type": "Polygon", "coordinates": [[[80.341992, 23.207207], [80.341765, 23.208021], [80.341022, 23.208435], [80.339731, 23.20807], [80.340128, 23.207079], [80.341462, 23.206384], [80.341992, 23.207207]]]}}, {"type": "Feature", "properties": {"khasra": "KHA003", "owner": "Sanjay Yadav", "area_sqm": 27565.0, "area_ha": 2.756, "land_use": "Fallow", "crop": "", "soil_type": "Medium Black Soil", "irrigation": "Canal", "village": "Kundam", "tehsil": "Kundam", "district": "Jabalpur"}, "geometry": {"type": "Polygon", "coordinates": [[[80.344292, 23.206482], [80.344598, 23.207474], [80.344672, 23.208983], [80.342251, 23.209101], [80.341168, 23.208517], [80.341288, 23.20705], [80.343268, 23.205766], [80.344292, 23.206482]]]}}, {"type": "Feature", "properties": {"khasra": "KHA004", "owner": "Sohan Singh", "area_sqm": 16565.0, "area_ha": 1.657, "land_use": "Agriculture", "crop": "Sugarcane", "soil_type": "Alluvial Clay Loam", "irrigation": "Canal", "village": "Kundam", "tehsil": "Kundam", "district": "Jabalpur"}, "geometry": {"type": "Polygon", "coordinates": [[[80.346628, 23.208098], [80.345025, 23.208446], [80.343903, 23.208536], [80.343498, 23.206912], [80.344772, 23.206249], [80.346418, 23.206476], [80.346628, 23.208098]]]}}, {"type": "Feature", "properties": {"khasra": "KHA005", "owner": "Sohan Lodhi", "area_sqm": 46556.0, "area_ha": 4.656, "land_use": "Built-up", "crop": "", "soil_type": "Medium Black Soil", "irrigation": "Rainfed", "village": "Kundam", "tehsil": "Kundam", "district": "Jabalpur"}, "geometry": {"type": "Polygon", "coordinates": [[[80.345253, 23.20817], [80.345795, 23.206146], [80.349119, 23.207098], [80.348592, 23.209012], [80.345253, 23.20817]]]}}, {"type": "Feature", "properties": {"khasra": "KHA006", "owner": "Rajesh Lodhi", "area_sqm": 41719.0, "area_ha": 4.172, "land_use": "Fallow", "crop": "", "soil_type": "Deep Black Soil", "irrigation": "Canal", "village": "Kundam", "tehsil": "Kundam", "district": "Jabalpur"}, "geometry": {"type": "Polygon", "coordinates": [[[80.351, 23.207277], [80.350874, 23.208396], [80.348143, 23.209023], [80.347345, 23.208202], [80.346827, 23.20638], [80.350176, 23.205649], [80.351, 23.207277]]]}}, {"type": "Feature", "properties": {"khasra": "KHA007", "owner": "Kishore Sahu", "area_sqm": 16849.0, "area_ha": 1.685, "land_use": "Forest Scrub", "crop": "", "soil_type": "Deep Black Soil", "irrigation": "Tube Well", "village": "Kundam", "tehsil": "Kundam", "district": "Jabalpur"}, "geometry": {"type": "Polygon", "coordinates": [[[80.350173, 23.207197], [80.351774, 23.206515], [80.352176, 23.207699], [80.350542, 23.208284], [80.350173, 23.207197]]]}}, {"type": "Feature", "properties": {"khasra": "KHA008", "owner": "Ajay Dwivedi", "area_sqm": 21805.0, "area_ha": 2.181, "land_use": "Agriculture", "crop": "Gram", "soil_type": "Alluvial Clay Loam", "irrigation": "Drip", "village": "Kundam", "tehsil": "Kundam", "district": "Jabalpur"}, "geometry": {"type": "Polygon", "coordinates": [[[80.352431, 23.206592], [80.353546, 23.206393], [80.354328, 23.207594], [80.353724, 23.208278], [80.352211, 23.208394], [80.351139, 23.207063], [80.352431, 23.206592]]]}}, {"type": "Feature", "properties": {"khasra": "KHA009", "owner": "Sanjay Sharma", "area_sqm": 39177.0, "area_ha": 3.918, "land_use": "Agriculture", "crop": "Pigeonpea", "soil_type": "Alluvial Clay Loam", "irrigation": "Drip", "village": "Kundam", "tehsil": "Kundam", "district": "Jabalpur"}, "geometry": {"type": "Polygon", "coordinates": [[[80.355551, 23.207951], [80.355492, 23.206474], [80.357076, 23.205567], [80.359289, 23.206417], [80.35892, 23.207558], [80.358174, 23.209323], [80.356429, 23.2088], [80.355551, 23.207951]]]}}, {"type": "Feature", "properties": {"khasra": "KHA010", "owner": "Mahesh Gupta", "area_sqm": 86433.0, "area_ha": 8.643, "land_use": "Forest Scrub", "crop": "", "soil_type": "Alluvial Clay Loam", "irrigation": "Canal", "village": "Kundam", "tehsil": "Kundam", "district": "Jabalpur"}, "geometry": {"type": "Polygon", "coordinates": [[[80.35749, 23.207054], [80.359188, 23.205336], [80.361106, 23.20778], [80.358173, 23.209689], [80.35749, 23.207054]]]}}, {"type": "Feature", "properties": {"khasra": "KHA011", "owner": "Harish Agrawal", "area_sqm": 34048.0, "area_ha": 3.405, "land_use": "Orchard", "crop": "", "soil_type": "Alluvial Clay Loam", "irrigation": "Canal", "village": "Kundam", "tehsil": "Kundam", "district": "Jabalpur"}, "geometry": {"type": "Polygon", "coordinates": [[[80.360775, 23.209375], [80.359336, 23.208093], [80.359926, 23.206895], [80.360689, 23.206049], [80.362083, 23.206757], [80.362271, 23.207797], [80.36242, 23.208509], [80.360775, 23.209375]]]}}, {"type": "Feature", "properties": {"khasra": "KHA012", "owner": "Rajesh Sharma", "area_sqm": 28039.0, "area_ha": 2.804, "land_use": "Agriculture", "crop": "Gram", "soil_type": "Deep Black Soil", "irrigation": "Tube Well", "village": "Kundam", "tehsil": "Kundam", "district": "Jabalpur"}, "geometry": {"type": "Polygon", "coordinates": [[[80.364555, 23.207955], [80.363225, 23.208624], [80.361832, 23.207945], [80.361456, 23.206949], [80.362627, 23.206356], [80.364842, 23.207136], [80.364555, 23.207955]]]}}, {"type": "Feature", "properties": {"khasra": "KHA013", "owner": "Amit Pandey", "area_sqm": 15109.0, "area_ha": 1.511, "land_use": "Fallow", "crop": "", "soil_type": "Medium Black Soil", "irrigation": "Tube Well", "village": "Kundam", "tehsil": "Kundam", "district": "Jabalpur"}, "geometry": {"type": "Polygon", "coordinates": [[[80.338142, 23.20831], [80.338631, 23.20879], [80.33794, 23.21025], [80.336207, 23.209856], [80.335934, 23.209406], [80.336419, 23.208291], [80.338142, 23.20831]]]}}, {"type": "Feature", "properties": {"khasra": "KHA014", "owner": "Kishore Yadav", "area_sqm": 20478.0, "area_ha": 2.048, "land_use": "Fallow", "crop": "", "soil_type": "Alluvial Clay Loam", "irrigation": "Tube Well", "village": "Kundam", "tehsil": "Kundam", "district": "Jabalpur"}, "geometry": {"type": "Polygon", "coordinates": [[[80.340198, 23.208234], [80.340564, 23.209919], [80.337577, 23.210157], [80.336828, 23.208043], [80.340198, 23.208234]]]}}, {"type": "Feature", "properties": {"khasra": "KHA015", "owner": "Vijay Kushwaha", "area_sqm": 30878.0, "area_ha": 3.088, "land_use": "Barren", "crop": "", "soil_type": "Medium Black Soil", "irrigation": "Tube Well", "village": "Kundam", "tehsil": "Kundam", "district": "Jabalpur"}, "geometry": {"type": "Polygon", "coordinates": [[[80.342243, 23.210378], [80.340153, 23.20976], [80.339382, 23.208903], [80.34112, 23.208069], [80.342753, 23.208764], [80.342243, 23.210378]]]}}, {"type": "Feature", "properties": {"khasra": "KHA016", "owner": "Ram Sahu", "area_sqm": 16160.0, "area_ha": 1.616, "land_use": "Road", "crop": "", "soil_type": "Sandy Loam", "irrigation": "Tube Well", "village": "Kundam", "tehsil": "Kundam", "district": "Jabalpur"}, "geometry": {"type": "Polygon", "coordinates": [[[80.342794, 23.207958], [80.344035, 23.208765], [80.344488, 23.209497], [80.343152, 23.210013], [80.342093, 23.209746], [80.342042, 23.208541], [80.342794, 23.207958]]]}}, {"type": "Feature", "properties": {"khasra": "KHA017", "owner": "Sohan Saket", "area_sqm": 15616.0, "area_ha": 1.562, "land_use": "Built-up", "crop": "", "soil_type": "Deep Black Soil", "irrigation": "None", "village": "Kundam", "tehsil": "Kundam", "district": "Jabalpur"}, "geometry": {"type": "Polygon", "coordinates": [[[80.346413, 23.209757], [80.34485, 23.21025], [80.343917, 23.210325], [80.343583, 23.208844], [80.345205, 23.208367], [80.34609, 23.208639], [80.346413, 23.209757]]]}}, {"type": "Feature", "properties": {"khasra": "KHA018", "owner": "Ravi Sahu", "area_sqm": 12505.0, "area_ha": 1.251, "land_use": "Agriculture", "crop": "Pigeonpea", "soil_type": "Medium Black Soil", "irrigation": "None", "village": "Kundam", "tehsil": "Kundam", "district": "Jabalpur"}, "geometry": {"type": "Polygon", "coordinates": [[[80.347991, 23.209688], [80.347335, 23.210237], [80.346412, 23.209908], [80.345875, 23.209627], [80.34619, 23.208712], [80.347331, 23.208175], [80.347737, 23.208641], [80.347991, 23.209688]]]}}, {"type": "Feature", "properties": {"khasra": "KHA019", "owner": "Lal Choudhary", "area_sqm": 52517.0, "area_ha": 5.252, "land_use": "Agriculture", "crop": "Soybean", "soil_type": "Medium Black Soil", "irrigation": "Rainfed", "village": "Kundam", "tehsil": "Kundam", "district": "Jabalpur"}, "geometry": {"type": "Polygon", "coordinates": [[[80.347701, 23.207534], [80.34997, 23.207722], [80.351194, 23.210069], [80.348407, 23.211025], [80.34711, 23.209482], [80.347701, 23.207534]]]}}, {"type": "Feature", "properties": {"khasra": "KHA020", "owner": "Ramesh Agrawal", "area_sqm": 20685.0, "area_ha": 2.069, "land_use": "Fallow", "crop": "", "soil_type": "Alluvial Clay Loam", "irrigation": "Canal", "village": "Kundam", "tehsil": "Kundam", "district": "Jabalpur"}, "geometry": {"type": "Polygon", "coordinates": [[[80.350771, 23.208112], [80.352432, 23.208255], [80.352018, 23.209975], [80.351088, 23.210864], [80.349414, 23.210313], [80.349644, 23.208542], [80.350771, 23.208112]]]}}, {"type": "Feature", "properties": {"khasra": "KHA021", "owner": "Dinesh Kushwaha", "area_sqm": 94319.0, "area_ha": 9.432, "land_use": "Agriculture", "crop": "Pigeonpea", "soil_type": "Sandy Loam", "irrigation": "None", "village": "Kundam", "tehsil": "Kundam", "district": "Jabalpur"}, "geometry": {"type": "Polygon", "coordinates": [[[80.351349, 23.208677], [80.352761, 23.207346], [80.355346, 23.209459], [80.352992, 23.211397], [80.351349, 23.208677]]]}}, {"type": "Feature", "properties": {"khasra": "KHA022", "owner": "Mohan Mishra", "area_sqm": 32526.0, "area_ha": 3.253, "land_use": "Agriculture", "crop": "Pigeonpea", "soil_type": "Medium Black Soil", "irrigation": "Tube Well", "village": "Kundam", "tehsil": "Kundam", "district": "Jabalpur"}, "geometry": {"type": "Polygon", "coordinates": [[[80.355172, 23.211086], [80.353416, 23.209559], [80.353749, 23.207697], [80.355882, 23.207937], [80.356195, 23.209893], [80.355172, 23.211086]]]}}, {"type": "Feature", "properties": {"khasra": "KHA023", "owner": "Kishore Choudhary", "area_sqm": 50948.0, "area_ha": 5.095, "land_use": "Forest Scrub", "crop": "", "soil_type": "Sandy Loam", "irrigation": "None", "village": "Kundam", "tehsil": "Kundam", "district": "Jabalpur"}, "geometry": {"type": "Polygon", "coordinates": [[[80.355053, 23.210299], [80.356216, 23.208193], [80.358266, 23.207788], [80.359552, 23.209382], [80.357623, 23.210687], [80.355053, 23.210299]]]}}, {"type": "Feature", "properties": {"khasra": "KHA024", "owner": "Sunil Rawat", "area_sqm": 16559.0, "area_ha": 1.656, "land_use": "Agriculture", "crop": "Pigeonpea", "soil_type": "Alluvial Clay Loam", "irrigation": "Drip", "village": "Kundam", "tehsil": "Kundam", "district": "Jabalpur"}, "geometry": {"type": "Polygon", "coordinates": [[[80.358929, 23.210492], [80.358067, 23.209717], [80.357977, 23.20889], [80.35877, 23.208386], [80.359735, 23.208153], [80.360422, 23.208748], [80.360131, 23.209843], [80.358929, 23.210492]]]}}, {"type": "Feature", "properties": {"khasra": "KHA025", "owner": "Dinesh Gupta", "area_sqm": 11103.0, "area_ha": 1.11, "land_use": "Fallow", "crop": "", "soil_type": "Deep Black Soil", "irrigation": "Tube Well", "village": "Kundam", "tehsil": "Kundam", "district": "Jabalpur"}, "geometry": {"type": "Polygon", "coordinates": [[[80.360757, 23.208364], [80.362515, 23.208266], [80.362564, 23.209393], [80.361418, 23.210471], [80.359939, 23.210454], [80.360046, 23.209529], [80.360001, 23.208769], [80.360757, 23.208364]]]}}, {"type": "Feature", "properties": {"khasra": "KHA026", "owner": "Jagdish Verma", "area_sqm": 17464.0, "area_ha": 1.746, "land_use": "Agriculture", "crop": "Gram", "soil_type": "Alluvial Clay Loam", "irrigation": "Rainfed", "village": "Kundam", "tehsil": "Kundam", "district": "Jabalpur"}, "geometry": {"type": "Polygon", "coordinates": [[[80.361788, 23.208684], [80.364274, 23.207992], [80.364437, 23.210249], [80.361905, 23.210536], [80.361788, 23.208684]]]}}, {"type": "Feature", "properties": {"khasra": "KHA027", "owner": "Ramesh Tiwari", "area_sqm": 38284.0, "area_ha": 3.828, "land_use": "Forest Scrub", "crop": "", "soil_type": "Medium Black Soil", "irrigation": "Drip", "village": "Kundam", "tehsil": "Kundam", "district": "Jabalpur"}, "geometry": {"type": "Polygon", "coordinates": [[[80.337099, 23.210899], [80.336193, 23.212063], [80.334151, 23.212271], [80.332707, 23.211436], [80.333815, 23.210097], [80.334687, 23.209293], [80.336759, 23.210003], [80.337099, 23.210899]]]}}, {"type": "Feature", "properties": {"khasra": "KHA028", "owner": "Amit Dwivedi", "area_sqm": 48308.0, "area_ha": 4.831, "land_use": "Agriculture", "crop": "Mustard", "soil_type": "Alluvial Clay Loam", "irrigation": "None", "village": "Kundam", "tehsil": "Kundam", "district": "Jabalpur"}, "geometry": {"type": "Polygon", "coordinates": [[[80.338022, 23.209255], [80.338815, 23.211825], [80.336234, 23.212372], [80.335235, 23.210274], [80.338022, 23.209255]]]}}, {"type": "Feature", "properties": {"khasra": "KHA029", "owner": "Sanjay Verma", "area_sqm": 10658.0, "area_ha": 1.066, "land_use": "Agriculture", "crop": "Sugarcane", "soil_type": "Alluvial Clay Loam", "irrigation": "Rainfed", "village": "Kundam", "tehsil": "Kundam", "district": "Jabalpur"}, "geometry": {"type": "Polygon", "coordinates": [[[80.340561, 23.209878], [80.34195, 23.210185], [80.342121, 23.210658], [80.341715, 23.211616], [80.340572, 23.21185], [80.339888, 23.21127], [80.340036, 23.2101], [80.340561, 23.209878]]]}}, {"type": "Feature", "properties": {"khasra": "KHA030", "owner": "Shyam Dwivedi", "area_sqm": 21639.0, "area_ha": 2.164, "land_use": "Orchard", "crop": "", "soil_type": "Alluvial Clay Loam", "irrigation": "Canal", "village": "Kundam", "tehsil": "Kundam", "district": "Jabalpur"}, "geometry": {"type": "Polygon", "coordinates": [[[80.343115, 23.20993], [80.344489, 23.210509], [80.344004, 23.212084], [80.342164, 23.2116], [80.34183, 23.210717], [80.343115, 23.20993]]]}}, {"type": "Feature", "properties": {"khasra": "KHA031", "owner": "Sohan Dwivedi", "area_sqm": 27227.0, "area_ha": 2.723, "land_use": "Forest Scrub", "crop": "", "soil_type": "Alluvial Clay Loam", "irrigation": "Tube Well", "village": "Kundam", "tehsil": "Kundam", "district": "Jabalpur"}, "geometry": {"type": "Polygon", "coordinates": [[[80.343635, 23.210165], [80.345303, 23.209516], [80.346558, 23.210636], [80.346155, 23.211609], [80.345917, 23.212246], [80.343682, 23.212236], [80.342848, 23.211339], [80.343635, 23.210165]]]}}, {"type": "Feature", "properties": {"khasra": "KHA032", "owner": "Vijay Agrawal", "area_sqm": 66451.0, "area_ha": 6.645, "land_use": "Fallow", "crop": "", "soil_type": "Alluvial Clay Loam", "irrigation": "Canal", "village": "Kundam", "tehsil": "Kundam", "district": "Jabalpur"}, "geometry": {"type": "Polygon", "coordinates": [[[80.34747, 23.208799], [80.349134, 23.210577], [80.347865, 23.212535], [80.345472, 23.212682], [80.344744, 23.210257], [80.34747, 23.208799]]]}}, {"type": "Feature", "properties": {"khasra": "KHA033", "owner": "Shyam Kushwaha", "area_sqm": 7076.0, "area_ha": 0.708, "land_use": "Agriculture", "crop": "Mustard", "soil_type": "Sandy Loam", "irrigation": "Canal", "village": "Kundam", "tehsil": "Kundam", "district": "Jabalpur"}, "geometry": {"type": "Polygon", "coordinates": [[[80.349992, 23.210899], [80.349846, 23.211608], [80.348548, 23.211665], [80.348018, 23.21145], [80.347835, 23.210177], [80.348972, 23.20996], [80.34951, 23.21004], [80.349992, 23.210899]]]}}, {"type": "Feature", "properties": {"khasra": "KHA034", "owner": "Ram Gupta", "area_sqm": 29329.0, "area_ha": 2.933, "land_use": "Orchard", "crop": "", "soil_type": "Sandy Loam", "irrigation": "None", "village": "Kundam", "tehsil": "Kundam", "district": "Jabalpur"}, "geometry": {"type": "Polygon", "coordinates": [[[80.351687, 23.209708], [80.352542, 23.210751], [80.351915, 23.212124], [80.349888, 23.212499], [80.349097, 23.210767], [80.349854, 23.210086], [80.351687, 23.209708]]]}}, {"type": "Feature", "properties": {"khasra": "KHA035", "owner": "Amit Rawat", "area_sqm": 35838.0, "area_ha": 3.584, "land_use": "Fallow", "crop": "", "soil_type": "Deep Black Soil", "irrigation": "Rainfed", "village": "Kundam", "tehsil": "Kundam", "district": "Jabalpur"}, "geometry": {"type": "Polygon", "coordinates": [[[80.354524, 23.212532], [80.351856, 23.21261], [80.351108, 23.211743], [80.350784, 23.209763], [80.353407, 23.209166], [80.354726, 23.209961], [80.355501, 23.211959], [80.354524, 23.212532]]]}}, {"type": "Feature", "properties": {"khasra": "KHA036", "owner": "Sohan Patel", "area_sqm": 45467.0, "area_ha": 4.547, "land_use": "Agriculture", "crop": "Mustard", "soil_type": "Deep Black Soil", "irrigation": "Drip", "village": "Kundam", "tehsil": "Kundam", "district": "Jabalpur"}, "geometry": {"type": "Polygon", "coordinates": [[[80.358024, 23.209324], [80.358998, 23.211385], [80.355573, 23.212549], [80.355489, 23.209988], [80.358024, 23.209324]]]}}, {"type": "Feature", "properties": {"khasra": "KHA037", "owner": "Gopal Agrawal", "area_sqm": 15096.0, "area_ha": 1.51, "land_use": "Orchard", "crop": "", "soil_type": "Deep Black Soil", "irrigation": "Drip", "village": "Kundam", "tehsil": "Kundam", "district": "Jabalpur"}, "geometry": {"type": "Polygon", "coordinates": [[[80.35957, 23.212166], [80.357233, 23.211796], [80.357258, 23.209812], [80.359823, 23.209997], [80.360314, 23.211507], [80.35957, 23.212166]]]}}, {"type": "Feature", "properties": {"khasra": "KHA038", "owner": "Rajesh Rawat", "area_sqm": 27846.0, "area_ha": 2.785, "land_use": "Agriculture", "crop": "Soybean", "soil_type": "Deep Black Soil", "irrigation": "Drip", "village": "Kundam", "tehsil": "Kundam", "district": "Jabalpur"}, "geometry": {"type": "Polygon", "coordinates": [[[80.361886, 23.212229], [80.359552, 23.211999], [80.359444, 23.210062], [80.36117, 23.209771], [80.363019, 23.210889], [80.361886, 23.212229]]]}}, {"type": "Feature", "properties": {"khasra": "KHA039", "owner": "Sunil Verma", "area_sqm": 31920.0, "area_ha": 3.192, "land_use": "Agriculture", "crop": "Wheat", "soil_type": "Alluvial Clay Loam", "irrigation": "None", "village": "Kundam", "tehsil": "Kundam", "district": "Jabalpur"}, "geometry": {"type": "Polygon", "coordinates": [[[80.36127, 23.210889], [80.36109, 23.209569], [80.363344, 23.209404], [80.365448, 23.210276], [80.365036, 23.212316], [80.362091, 23.212604], [80.36127, 23.210889]]]}}, {"type": "Feature", "properties": {"khasra": "KHA040", "owner": "Shyam Choudhary", "area_sqm": 20507.0, "area_ha": 2.051, "land_use": "Forest Scrub", "crop": "", "soil_type": "Deep Black Soil", "irrigation": "None", "village": "Kundam", "tehsil": "Kundam", "district": "Jabalpur"}, "geometry": {"type": "Polygon", "coordinates": [[[80.333351, 23.212669], [80.334772, 23.211783], [80.335613, 23.211779], [80.336239, 23.212378], [80.336134, 23.212956], [80.33494, 23.213747], [80.333699, 23.21314], [80.333351, 23.212669]]]}}, {"type": "Feature", "properties": {"khasra": "KHA041", "owner": "Lal Mishra", "area_sqm": 103250.0, "area_ha": 10.325, "land_use": "Agriculture", "crop": "Maize", "soil_type": "Deep Black Soil", "irrigation": "Tube Well", "village": "Kundam", "tehsil": "Kundam", "district": "Jabalpur"}, "geometry": {"type": "Polygon", "coordinates": [[[80.341232, 23.212111], [80.338575, 23.214284], [80.336359, 23.212379], [80.338284, 23.21059], [80.341232, 23.212111]]]}}, {"type": "Feature", "properties": {"khasra": "KHA042", "owner": "Kishore Kushwaha", "area_sqm": 44097.0, "area_ha": 4.41, "land_use": "Forest Scrub", "crop": "", "soil_type": "Deep Black Soil", "irrigation": "Rainfed", "village": "Kundam", "tehsil": "Kundam", "district": "Jabalpur"}, "geometry": {"type": "Polygon", "coordinates": [[[80.342292, 23.214268], [80.339027, 23.213507], [80.339569, 23.211074], [80.34304, 23.211611], [80.342292, 23.214268]]]}}, {"type": "Feature", "properties": {"khasra": "KHA043", "owner": "Gopal Lodhi", "area_sqm": 54690.0, "area_ha": 5.469, "land_use": "Built-up", "crop": "", "soil_type": "Clay Loam", "irrigation": "None", "village": "Kundam", "tehsil": "Kundam", "district": "Jabalpur"}, "geometry": {"type": "Polygon", "coordinates": [[[80.3444, 23.21432], [80.34205, 23.212759], [80.342834, 23.212047], [80.344523, 23.210861], [80.346338, 23.211673], [80.347196, 23.213131], [80.347299, 23.214171], [80.3444, 23.21432]]]}}, {"type": "Feature", "properties": {"khasra": "KHA044", "owner": "Rahul Rawat", "area_sqm": 36433.0, "area_ha": 3.643, "land_use": "Fallow", "crop": "", "soil_type": "Medium Black Soil", "irrigation": "Canal", "village": "Kundam", "tehsil": "Kundam", "district": "Jabalpur"}, "geometry": {"type": "Polygon", "coordinates": [[[80.347657, 23.211302], [80.348656, 23.212801], [80.347163, 23.213964], [80.345453, 23.213106], [80.345726, 23.211984], [80.347657, 23.211302]]]}}, {"type": "Feature", "properties": {"khasra": "KHA045", "owner": "Kishore Prajapati", "area_sqm": 34986.0, "area_ha": 3.499, "land_use": "Forest Scrub", "crop": "", "soil_type": "Medium Black Soil", "irrigation": "Drip", "village": "Kundam", "tehsil": "Kundam", "district": "Jabalpur"}, "geometry": {"type": "Polygon", "coordinates": [[[80.349797, 23.213838], [80.348731, 23.213983], [80.347377, 23.212913], [80.34829, 23.211722], [80.349136, 23.211106], [80.350635, 23.211971], [80.349797, 23.213838]]]}}, {"type": "Feature", "properties": {"khasra": "KHA046", "owner": "Ramesh Verma", "area_sqm": 24819.0, "area_ha": 2.482, "land_use": "Road", "crop": "", "soil_type": "Sandy Loam", "irrigation": "Rainfed", "village": "Kundam", "tehsil": "Kundam", "district": "Jabalpur"}, "geometry": {"type": "Polygon", "coordinates": [[[80.354063, 23.213672], [80.352133, 23.214109], [80.351832, 23.213139], [80.351277, 23.211831], [80.353567, 23.211016], [80.354062, 23.212186], [80.354063, 23.213672]]]}}, {"type": "Feature", "properties": {"khasra": "KHA047", "owner": "Jagdish Mishra", "area_sqm": 42060.0, "area_ha": 4.206, "land_use": "Forest Scrub", "crop": "", "soil_type": "Medium Black Soil", "irrigation": "Drip", "village": "Kundam", "tehsil": "Kundam", "district": "Jabalpur"}, "geometry": {"type": "Polygon", "coordinates": [[[80.355725, 23.212625], [80.356786, 23.211165], [80.358396, 23.212683], [80.356991, 23.213894], [80.355725, 23.212625]]]}}, {"type": "Feature", "properties": {"khasra": "KHA048", "owner": "Jagdish Patel", "area_sqm": 25395.0, "area_ha": 2.54, "land_use": "Road", "crop": "", "soil_type": "Deep Black Soil", "irrigation": "Tube Well", "village": "Kundam", "tehsil": "Kundam", "district": "Jabalpur"}, "geometry": {"type": "Polygon", "coordinates": [[[80.358814, 23.211124], [80.359976, 23.21151], [80.360566, 23.213481], [80.358769, 23.213732], [80.357899, 23.212831], [80.358814, 23.211124]]]}}, {"type": "Feature", "properties": {"khasra": "KHA049", "owner": "Ram Singh", "area_sqm": 30748.0, "area_ha": 3.075, "land_use": "Agriculture", "crop": "Mustard", "soil_type": "Medium Black Soil", "irrigation": "Canal", "village": "Kundam", "tehsil": "Kundam", "district": "Jabalpur"}, "geometry": {"type": "Polygon", "coordinates": [[[80.36359, 23.211408], [80.36522, 23.212123], [80.363708, 23.213683], [80.361826, 23.213097], [80.361931, 23.211751], [80.36359, 23.211408]]]}}, {"type": "Feature", "properties": {"khasra": "KHA050", "owner": "Rahul Dubey", "area_sqm": 15595.0, "area_ha": 1.56, "land_use": "Built-up", "crop": "", "soil_type": "Sandy Loam", "irrigation": "None", "village": "Kundam", "tehsil": "Kundam", "district": "Jabalpur"}, "geometry": {"type": "Polygon", "coordinates": [[[80.336702, 23.215318], [80.336029, 23.214367], [80.336764, 23.21331], [80.338169, 23.213862], [80.338156, 23.214974], [80.336702, 23.215318]]]}}, {"type": "Feature", "properties": {"khasra": "KHA051", "owner": "Ajay Mishra", "area_sqm": 10558.0, "area_ha": 1.056, "land_use": "Agriculture", "crop": "Rice", "soil_type": "Sandy Loam", "irrigation": "None", "village": "Kundam", "tehsil": "Kundam", "district": "Jabalpur"}, "geometry": {"type": "Polygon", "coordinates": [[[80.34031, 23.214028], [80.339974, 23.215233], [80.338897, 23.215083], [80.338001, 23.214976], [80.33781, 23.21377], [80.33862, 23.213293], [80.339619, 23.213442], [80.34031, 23.214028]]]}}, {"type": "Feature", "properties": {"khasra": "KHA052", "owner": "Ramesh Prajapati", "area_sqm": 8708.0, "area_ha": 0.871, "land_use": "Barren", "crop": "", "soil_type": "Deep Black Soil", "irrigation": "Canal", "village": "Kundam", "tehsil": "Kundam", "district": "Jabalpur"}, "geometry": {"type": "Polygon", "coordinates": [[[80.34021, 23.215088], [80.339846, 23.214522], [80.340239, 23.213181], [80.341099, 23.213431], [80.341916, 23.213495], [80.342137, 23.214794], [80.341543, 23.215021], [80.34021, 23.215088]]]}}, {"type": "Feature", "properties": {"khasra": "KHA053", "owner": "Kishore Choudhary", "area_sqm": 63855.0, "area_ha": 6.386, "land_use": "Agriculture", "crop": "Mustard", "soil_type": "Deep Black Soil", "irrigation": "Drip", "village": "Kundam", "tehsil": "Kundam", "district": "Jabalpur"}, "geometry": {"type": "Polygon", "coordinates": [[[80.340815, 23.215122], [80.342077, 23.212656], [80.345031, 23.213604], [80.345093, 23.216292], [80.340815, 23.215122]]]}}, {"type": "Feature", "properties": {"khasra": "KHA054", "owner": "Rahul Rawat", "area_sqm": 30899.0, "area_ha": 3.09, "land_use": "Agriculture", "crop": "Sugarcane", "soil_type": "Alluvial Clay Loam", "irrigation": "Rainfed", "village": "Kundam", "tehsil": "Kundam", "district": "Jabalpur"}, "geometry": {"type": "Polygon", "coordinates": [[[80.346779, 23.214343], [80.345148, 23.21546], [80.344424, 23.215185], [80.343898, 23.214056], [80.344581, 23.212694], [80.345672, 23.213122], [80.346779, 23.214343]]]}}, {"type": "Feature", "properties": {"khasra": "KHA055", "owner": "Harish Tripathi", "area_sqm": 21957.0, "area_ha": 2.196, "land_use": "Agriculture", "crop": "Maize", "soil_type": "Deep Black Soil", "irrigation": "Rainfed", "village": "Kundam", "tehsil": "Kundam", "district": "Jabalpur"}, "geometry": {"type": "Polygon", "coordinates": [[[80.347883, 23.214903], [80.346579, 23.215508], [80.345531, 23.21365], [80.347601, 23.213343], [80.347883, 23.214903]]]}}, {"type": "Feature", "properties": {"khasra": "KHA056", "owner": "Mohan Saket", "area_sqm": 15744.0, "area_ha": 1.574, "land_use": "Agriculture", "crop": "Gram", "soil_type": "Deep Black Soil", "irrigation": "Rainfed", "village": "Kundam", "tehsil": "Kundam", "district": "Jabalpur"}, "geometry": {"type": "Polygon", "coordinates": [[[80.349305, 23.215109], [80.348034, 23.214643], [80.348753, 23.213607], [80.349991, 23.214269], [80.349305, 23.215109]]]}}, {"type": "Feature", "properties": {"khasra": "KHA057", "owner": "Mohan Mishra", "area_sqm": 35476.0, "area_ha": 3.548, "land_use": "Fallow", "crop": "", "soil_type": "Sandy Loam", "irrigation": "Rainfed", "village": "Kundam", "tehsil": "Kundam", "district": "Jabalpur"}, "geometry": {"type": "Polygon", "coordinates": [[[80.352469, 23.214502], [80.350673, 23.215396], [80.34999, 23.214396], [80.351021, 23.212897], [80.352469, 23.214502]]]}}, {"type": "Feature", "properties": {"khasra": "KHA058", "owner": "Amit Sahu", "area_sqm": 16757.0, "area_ha": 1.676, "land_use": "Agriculture", "crop": "Soybean", "soil_type": "Alluvial Clay Loam", "irrigation": "Tube Well", "village": "Kundam", "tehsil": "Kundam", "district": "Jabalpur"}, "geometry": {"type": "Polygon", "coordinates": [[[80.351856, 23.213846], [80.353497, 23.213461], [80.35391, 23.21478], [80.352068, 23.215527], [80.351856, 23.213846]]]}}, {"type": "Feature", "properties": {"khasra": "KHA059", "owner": "Ravi Dubey", "area_sqm": 32728.0, "area_ha": 3.273, "land_use": "Fallow", "crop": "", "soil_type": "Sandy Loam", "irrigation": "Rainfed", "village": "Kundam", "tehsil": "Kundam", "district": "Jabalpur"}, "geometry": {"type": "Polygon", "coordinates": [[[80.35526, 23.213337], [80.356344, 23.214539], [80.35496, 23.215542], [80.353721, 23.214197], [80.35526, 23.213337]]]}}, {"type": "Feature", "properties": {"khasra": "KHA060", "owner": "Kishore Yadav", "area_sqm": 32717.0, "area_ha": 3.272, "land_use": "Fallow", "crop": "", "soil_type": "Alluvial Clay Loam", "irrigation": "None", "village": "Kundam", "tehsil": "Kundam", "district": "Jabalpur"}, "geometry": {"type": "Polygon", "coordinates": [[[80.359141, 23.215464], [80.357686, 23.214435], [80.359043, 23.212999], [80.35998, 23.214686], [80.359141, 23.215464]]]}}, {"type": "Feature", "properties": {"khasra": "KHA061", "owner": "Mahesh Mishra", "area_sqm": 67991.0, "area_ha": 6.799, "land_use": "Fallow", "crop": "", "soil_type": "Alluvial Clay Loam", "irrigation": "Rainfed", "village": "Kundam", "tehsil": "Kundam", "district": "Jabalpur"}, "geometry": {"type": "Polygon", "coordinates": [[[80.359408, 23.212426], [80.362001, 23.212332], [80.363771, 23.214553], [80.362791, 23.215569], [80.360627, 23.216302], [80.358851, 23.213934], [80.359408, 23.212426]]]}}, {"type": "Feature", "properties": {"khasra": "KHA062", "owner": "Mohan Lodhi", "area_sqm": 25310.0, "area_ha": 2.531, "land_use": "Orchard", "crop": "", "soil_type": "Alluvial Clay Loam", "irrigation": "None", "village": "Kundam", "tehsil": "Kundam", "district": "Jabalpur"}, "geometry": {"type": "Polygon", "coordinates": [[[80.364762, 23.214426], [80.363577, 23.215731], [80.361388, 23.215268], [80.361776, 23.213671], [80.362819, 23.213266], [80.364413, 23.213067], [80.364762, 23.214426]]]}}, {"type": "Feature", "properties": {"khasra": "KHA063", "owner": "Ravi Singh", "area_sqm": 39001.0, "area_ha": 3.9, "land_use": "Forest Scrub", "crop": "", "soil_type": "Deep Black Soil", "irrigation": "Tube Well", "village": "Kundam", "tehsil": "Kundam", "district": "Jabalpur"}, "geometry": {"type": "Polygon", "coordinates": [[[80.333526, 23.217487], [80.33303, 23.21551], [80.334908, 23.214393], [80.3366, 23.215215], [80.336369, 23.216807], [80.333526, 23.217487]]]}}, {"type": "Feature", "properties": {"khasra": "KHA064", "owner": "Sanjay Dubey", "area_sqm": 38229.0, "area_ha": 3.823, "land_use": "Built-up", "crop": "", "soil_type": "Alluvial Clay Loam", "irrigation": "Rainfed", "village": "Kundam", "tehsil": "Kundam", "district": "Jabalpur"}, "geometry": {"type": "Polygon", "coordinates": [[[80.339522, 23.214834], [80.340085, 23.216173], [80.339094, 23.217294], [80.337306, 23.215705], [80.339522, 23.214834]]]}}, {"type": "Feature", "properties": {"khasra": "KHA065", "owner": "Ravi Gupta", "area_sqm": 74275.0, "area_ha": 7.428, "land_use": "Agriculture", "crop": "Soybean", "soil_type": "Sandy Loam", "irrigation": "None", "village": "Kundam", "tehsil": "Kundam", "district": "Jabalpur"}, "geometry": {"type": "Polygon", "coordinates": [[[80.341237, 23.213995], [80.343432, 23.215755], [80.34223, 23.217897], [80.339196, 23.216707], [80.339251, 23.215391], [80.341237, 23.213995]]]}}, {"type": "Feature", "properties": {"khasra": "KHA066", "owner": "Lal Prajapati", "area_sqm": 27035.0, "area_ha": 2.704, "land_use": "Agriculture", "crop": "Wheat", "soil_type": "Deep Black Soil", "irrigation": "Drip", "village": "Kundam", "tehsil": "Kundam", "district": "Jabalpur"}, "geometry": {"type": "Polygon", "coordinates": [[[80.346223, 23.215734], [80.345195, 23.216948], [80.34333, 23.216673], [80.344222, 23.21501], [80.346223, 23.215734]]]}}, {"type": "Feature", "properties": {"khasra": "KHA067", "owner": "Ram Sharma", "area_sqm": 30726.0, "area_ha": 3.073, "land_use": "Built-up", "crop": "", "soil_type": "Deep Black Soil", "irrigation": "None", "village": "Kundam", "tehsil": "Kundam", "district": "Jabalpur"}, "geometry": {"type": "Polygon", "coordinates": [[[80.345767, 23.217697], [80.345715, 23.215123], [80.348283, 23.21408], [80.348818, 23.217464], [80.345767, 23.217697]]]}}, {"type": "Feature", "properties": {"khasra": "KHA068", "owner": "Vijay Sharma", "area_sqm": 10273.0, "area_ha": 1.027, "land_use": "Fallow", "crop": "", "soil_type": "Alluvial Clay Loam", "irrigation": "Drip", "village": "Kundam", "tehsil": "Kundam", "district": "Jabalpur"}, "geometry": {"type": "Polygon", "coordinates": [[[80.351887, 23.215593], [80.35206, 23.216226], [80.350972, 23.216933], [80.350299, 23.217038], [80.350191, 23.215911], [80.350459, 23.215327], [80.351092, 23.215086], [80.351887, 23.215593]]]}}, {"type": "Feature", "properties": {"khasra": "KHA069", "owner": "Ravi Yadav", "area_sqm": 37810.0, "area_ha": 3.781, "land_use": "Fallow", "crop": "", "soil_type": "Medium Black Soil", "irrigation": "Rainfed", "village": "Kundam", "tehsil": "Kundam", "district": "Jabalpur"}, "geometry": {"type": "Polygon", "coordinates": [[[80.354565, 23.215581], [80.353005, 23.217079], [80.351512, 23.216818], [80.352348, 23.214663], [80.354565, 23.215581]]]}}, {"type": "Feature", "properties": {"khasra": "KHA070", "owner": "Sunil Gupta", "area_sqm": 42055.0, "area_ha": 4.206, "land_use": "Agriculture", "crop": "Gram", "soil_type": "Alluvial Clay Loam", "irrigation": "Canal", "village": "Kundam", "tehsil": "Kundam", "district": "Jabalpur"}, "geometry": {"type": "Polygon", "coordinates": [[[80.354042, 23.215026], [80.35501, 23.214243], [80.356326, 23.215796], [80.357114, 23.216486], [80.354989, 23.217383], [80.354071, 23.217238], [80.353196, 23.215713], [80.354042, 23.215026]]]}}, {"type": "Feature", "properties": {"khasra": "KHA071", "owner": "Rajesh Dubey", "area_sqm": 22925.0, "area_ha": 2.293, "land_use": "Agriculture", "crop": "Pigeonpea", "soil_type": "Alluvial Clay Loam", "irrigation": "Drip", "village": "Kundam", "tehsil": "Kundam", "district": "Jabalpur"}, "geometry": {"type": "Polygon", "coordinates": [[[80.358486, 23.214171], [80.360668, 23.214583], [80.360514, 23.216054], [80.35999, 23.217388], [80.357943, 23.217038], [80.357576, 23.216488], [80.357468, 23.215255], [80.358486, 23.214171]]]}}, {"type": "Feature", "properties": {"khasra": "KHA072", "owner": "Shyam Choudhary", "area_sqm": 19533.0, "area_ha": 1.953, "land_use": "Agriculture", "crop": "Maize", "soil_type": "Alluvial Clay Loam", "irrigation": "None", "village": "Kundam", "tehsil": "Kundam", "district": "Jabalpur"}, "geometry": {"type": "Polygon", "coordinates": [[[80.364209, 23.216166], [80.36366, 23.217192], [80.362047, 23.217388], [80.361828, 23.216214], [80.362408, 23.214542], [80.363592, 23.21504], [80.364209, 23.216166]]]}}, {"type": "Feature", "properties": {"khasra": "KHA073", "owner": "Mohan Dubey", "area_sqm": 38800.0, "area_ha": 3.88, "land_use": "Agriculture", "crop": "Sugarcane", "soil_type": "Alluvial Clay Loam", "irrigation": "Tube Well", "village": "Kundam", "tehsil": "Kundam", "district": "Jabalpur"}, "geometry": {"type": "Polygon", "coordinates": [[[80.333634, 23.218796], [80.33297, 23.217657], [80.334039, 23.216817], [80.335814, 23.216304], [80.336757, 23.217029], [80.336474, 23.218209], [80.335409, 23.219686], [80.333634, 23.218796]]]}}, {"type": "Feature", "properties": {"khasra": "KHA074", "owner": "Harish Prajapati", "area_sqm": 36135.0, "area_ha": 3.613, "land_use": "Agriculture", "crop": "Sugarcane", "soil_type": "Alluvial Clay Loam", "irrigation": "None", "village": "Kundam", "tehsil": "Kundam", "district": "Jabalpur"}, "geometry": {"type": "Polygon", "coordinates": [[[80.339153, 23.217895], [80.338144, 23.218912], [80.336298, 23.219584], [80.335317, 23.217555], [80.335975, 23.216513], [80.338768, 23.216262], [80.339153, 23.217895]]]}}, {"type": "Feature", "properties": {"khasra": "KHA075", "owner": "Ravi Dwivedi", "area_sqm": 13414.0, "area_ha": 1.341, "land_use": "Agriculture", "crop": "Sugarcane", "soil_type": "Medium Black Soil", "irrigation": "Rainfed", "village": "Kundam", "tehsil": "Kundam", "district": "Jabalpur"}, "geometry": {"type": "Polygon", "coordinates": [[[80.340539, 23.218905], [80.337728, 23.218724], [80.337586, 23.216578], [80.339926, 23.216548], [80.340539, 23.218905]]]}}, {"type": "Feature", "properties": {"khasra": "KHA076", "owner": "Lal Kushwaha", "area_sqm": 13969.0, "area_ha": 1.397, "land_use": "Fallow", "crop": "", "soil_type": "Deep Black Soil", "irrigation": "Canal", "village": "Kundam", "tehsil": "Kundam", "district": "Jabalpur"}, "geometry": {"type": "Polygon", "coordinates": [[[80.342676, 23.217713], [80.341946, 23.21836], [80.341334, 23.219142], [80.339797, 23.218786], [80.33982, 23.217451], [80.340273, 23.216965], [80.341811, 23.216953], [80.342676, 23.217713]]]}}, {"type": "Feature", "properties": {"khasra": "KHA077", "owner": "Rahul Dubey", "area_sqm": 56829.0, "area_ha": 5.683, "land_use": "Agriculture", "crop": "Mustard", "soil_type": "Deep Black Soil", "irrigation": "Drip", "village": "Kundam", "tehsil": "Kundam", "district": "Jabalpur"}, "geometry": {"type": "Polygon", "coordinates": [[[80.344095, 23.219557], [80.342598, 23.218914], [80.340841, 23.217495], [80.342052, 23.215854], [80.344083, 23.216056], [80.345235, 23.217751], [80.344095, 23.219557]]]}}, {"type": "Feature", "properties": {"khasra": "KHA078", "owner": "Jagdish Mishra", "area_sqm": 35478.0, "area_ha": 3.548, "land_use": "Agriculture", "crop": "Rice", "soil_type": "Alluvial Clay Loam", "irrigation": "Drip", "village": "Kundam", "tehsil": "Kundam", "district": "Jabalpur"}, "geometry": {"type": "Polygon", "coordinates": [[[80.349286, 23.219196], [80.347103, 23.218344], [80.347665, 23.217187], [80.349522, 23.216599], [80.350371, 23.217706], [80.349286, 23.219196]]]}}, {"type": "Feature", "properties": {"khasra": "KHA079", "owner": "Rahul Dwivedi", "area_sqm": 97837.0, "area_ha": 9.784, "land_use": "Agriculture", "crop": "Mustard", "soil_type": "Deep Black Soil", "irrigation": "Drip", "village": "Kundam", "tehsil": "Kundam", "district": "Jabalpur"}, "geometry": {"type": "Polygon", "coordinates": [[[80.351859, 23.219241], [80.350116, 23.220306], [80.347932, 23.217863], [80.349982, 23.216374], [80.351986, 23.215839], [80.353578, 23.217266], [80.351859, 23.219241]]]}}, {"type": "Feature", "properties": {"khasra": "KHA080", "owner": "Mahesh Prajapati", "area_sqm": 14480.0, "area_ha": 1.448, "land_use": "Orchard", "crop": "", "soil_type": "Alluvial Clay Loam", "irrigation": "Canal", "village": "Kundam", "tehsil": "Kundam", "district": "Jabalpur"}, "geometry": {"type": "Polygon", "coordinates": [[[80.357944, 23.218259], [80.358379, 23.216903], [80.360459, 23.216859], [80.360336, 23.218919], [80.357944, 23.218259]]]}}, {"type": "Feature", "properties": {"khasra": "KHA081", "owner": "Rahul Tiwari", "area_sqm": 23232.0, "area_ha": 2.323, "land_use": "Fallow", "crop": "", "soil_type": "Alluvial Clay Loam", "irrigation": "None", "village": "Kundam", "tehsil": "Kundam", "district": "Jabalpur"}, "geometry": {"type": "Polygon", "coordinates": [[[80.36228, 23.217276], [80.361889, 23.218207], [80.3604, 23.218713], [80.359569, 23.217435], [80.360926, 23.216672], [80.36228, 23.217276]]]}}, {"type": "Feature", "properties": {"khasra": "KHA082", "owner": "Harish Tripathi", "area_sqm": 28334.0, "area_ha": 2.833, "land_use": "Fallow", "crop": "", "soil_type": "Alluvial Clay Loam", "irrigation": "Canal", "village": "Kundam", "tehsil": "Kundam", "district": "Jabalpur"}, "geometry": {"type": "Polygon", "coordinates": [[[80.361143, 23.217835], [80.361963, 23.216305], [80.364475, 23.215947], [80.365034, 23.21847], [80.363462, 23.219134], [80.361054, 23.219212], [80.361143, 23.217835]]]}}, {"type": "Feature", "properties": {"khasra": "KHA083", "owner": "Lal Saket", "area_sqm": 21082.0, "area_ha": 2.108, "land_use": "Agriculture", "crop": "Gram", "soil_type": "Deep Black Soil", "irrigation": "Drip", "village": "Kundam", "tehsil": "Kundam", "district": "Jabalpur"}, "geometry": {"type": "Polygon", "coordinates": [[[80.334243, 23.218666], [80.335422, 23.218431], [80.335911, 23.218477], [80.336791, 23.219541], [80.335773, 23.220829], [80.33361, 23.22057], [80.333809, 23.219404], [80.334243, 23.218666]]]}}, {"type": "Feature", "properties": {"khasra": "KHA084", "owner": "Sunil Tripathi", "area_sqm": 27142.0, "area_ha": 2.714, "land_use": "Orchard", "crop": "", "soil_type": "Medium Black Soil", "irrigation": "Drip", "village": "Kundam", "tehsil": "Kundam", "district": "Jabalpur"}, "geometry": {"type": "Polygon", "coordinates": [[[80.338555, 23.218779], [80.338375, 23.22019], [80.337237, 23.220549], [80.335822, 23.21968], [80.335337, 23.218856], [80.337424, 23.218077], [80.338555, 23.218779]]]}}, {"type": "Feature", "properties": {"khasra": "KHA085", "owner": "Amit Dwivedi", "area_sqm": 27500.0, "area_ha": 2.75, "land_use": "Built-up", "crop": "", "soil_type": "Alluvial Clay Loam", "irrigation": "None", "village": "Kundam", "tehsil": "Kundam", "district": "Jabalpur"}, "geometry": {"type": "Polygon", "coordinates": [[[80.339671, 23.217765], [80.340893, 23.219399], [80.340775, 23.220686], [80.338893, 23.220618], [80.33749, 23.219356], [80.337926, 23.21779], [80.339671, 23.217765]]]}}, {"type": "Feature", "properties": {"khasra": "KHA086", "owner": "Gopal Sahu", "area_sqm": 11429.0, "area_ha": 1.143, "land_use": "Forest Scrub", "crop": "", "soil_type": "Deep Black Soil", "irrigation": "Drip", "village": "Kundam", "tehsil": "Kundam", "district": "Jabalpur"}, "geometry": {"type": "Polygon", "coordinates": [[[80.340167, 23.218643], [80.341421, 23.218751], [80.342366, 23.219453], [80.341618, 23.220452], [80.340156, 23.220164], [80.340167, 23.218643]]]}}, {"type": "Feature", "properties": {"khasra": "KHA087", "owner": "Gopal Kushwaha", "area_sqm": 71629.0, "area_ha": 7.163, "land_use": "Agriculture", "crop": "Wheat", "soil_type": "Clay Loam", "irrigation": "Drip", "village": "Kundam", "tehsil": "Kundam", "district": "Jabalpur"}, "geometry": {"type": "Polygon", "coordinates": [[[80.343044, 23.220929], [80.341067, 23.219], [80.344021, 23.217783], [80.345159, 23.21945], [80.343044, 23.220929]]]}}, {"type": "Feature", "properties": {"khasra": "KHA088", "owner": "Sohan Rawat", "area_sqm": 47191.0, "area_ha": 4.719, "land_use": "Forest Scrub", "crop": "", "soil_type": "Deep Black Soil", "irrigation": "Tube Well", "village": "Kundam", "tehsil": "Kundam", "district": "Jabalpur"}, "geometry": {"type": "Polygon", "coordinates": [[[80.346254, 23.218928], [80.345273, 23.220686], [80.343181, 23.219662], [80.343974, 23.21771], [80.346254, 23.218928]]]}}, {"type": "Feature", "properties": {"khasra": "KHA089", "owner": "Ram Gupta", "area_sqm": 18038.0, "area_ha": 1.804, "land_use": "Agriculture", "crop": "Soybean", "soil_type": "Deep Black Soil", "irrigation": "Tube Well", "village": "Kundam", "tehsil": "Kundam", "district": "Jabalpur"}, "geometry": {"type": "Polygon", "coordinates": [[[80.347062, 23.220397], [80.3459, 23.219552], [80.34627, 23.218327], [80.347756, 23.218512], [80.348243, 23.219672], [80.347062, 23.220397]]]}}, {"type": "Feature", "properties": {"khasra": "KHA090", "owner": "Sanjay Singh", "area_sqm": 24078.0, "area_ha": 2.408, "land_use": "Agriculture", "crop": "Mustard", "soil_type": "Alluvial Clay Loam", "irrigation": "Tube Well", "village": "Kundam", "tehsil": "Kundam", "district": "Jabalpur"}, "geometry": {"type": "Polygon", "coordinates": [[[80.348739, 23.220286], [80.347362, 23.219859], [80.347885, 23.219042], [80.348987, 23.218182], [80.350754, 23.218756], [80.350003, 23.220182], [80.348739, 23.220286]]]}}, {"type": "Feature", "properties": {"khasra": "KHA091", "owner": "Lal Sahu", "area_sqm": 25520.0, "area_ha": 2.552, "land_use": "Fallow", "crop": "", "soil_type": "Alluvial Clay Loam", "irrigation": "None", "village": "Kundam", "tehsil": "Kundam", "district": "Jabalpur"}, "geometry": {"type": "Polygon", "coordinates": [[[80.352605, 23.219346], [80.351971, 23.220659], [80.350611, 23.220509], [80.349006, 23.219262], [80.349817, 23.218524], [80.351665, 23.218547], [80.352605, 23.219346]]]}}, {"type": "Feature", "properties": {"khasra": "KHA092", "owner": "Ramesh Prajapati", "area_sqm": 11562.0, "area_ha": 1.156, "land_use": "Built-up", "crop": "", "soil_type": "Deep Black Soil", "irrigation": "Canal", "village": "Kundam", "tehsil": "Kundam", "district": "Jabalpur"}, "geometry": {"type": "Polygon", "coordinates": [[[80.352626, 23.220359], [80.351945, 23.219801], [80.352304, 23.218668], [80.353056, 23.218465], [80.353703, 23.218667], [80.354177, 23.219874], [80.35362, 23.22042], [80.352626, 23.220359]]]}}, {"type": "Feature", "properties": {"khasra": "KHA093", "owner": "Mahesh Sharma", "area_sqm": 47351.0, "area_ha": 4.735, "land_use": "Forest Scrub", "crop": "", "soil_type": "Deep Black Soil", "irrigation": "Drip", "village": "Kundam", "tehsil": "Kundam", "district": "Jabalpur"}, "geometry": {"type": "Polygon", "coordinates": [[[80.356739, 23.219948], [80.354691, 23.220764], [80.352831, 23.218497], [80.356204, 23.218099], [80.356739, 23.219948]]]}}, {"type": "Feature", "properties": {"khasra": "KHA094", "owner": "Shyam Mishra", "area_sqm": 22901.0, "area_ha": 2.29, "land_use": "Agriculture", "crop": "Soybean", "soil_type": "Alluvial Clay Loam", "irrigation": "Canal", "village": "Kundam", "tehsil": "Kundam", "district": "Jabalpur"}, "geometry": {"type": "Polygon", "coordinates": [[[80.3557, 23.218747], [80.355998, 23.217873], [80.358546, 23.21852], [80.358366, 23.220073], [80.357224, 23.220677], [80.356126, 23.220268], [80.3557, 23.218747]]]}}, {"type": "Feature", "properties": {"khasra": "KHA095", "owner": "Sunil Tiwari", "area_sqm": 48271.0, "area_ha": 4.827, "land_use": "Agriculture", "crop": "Mustard", "soil_type": "Alluvial Clay Loam", "irrigation": "None", "village": "Kundam", "tehsil": "Kundam", "district": "Jabalpur"}, "geometry": {"type": "Polygon", "coordinates": [[[80.359833, 23.218457], [80.360784, 23.220457], [80.359057, 23.22126], [80.357373, 23.219574], [80.357752, 23.217714], [80.359833, 23.218457]]]}}, {"type": "Feature", "properties": {"khasra": "KHA096", "owner": "Sunil Mishra", "area_sqm": 34328.0, "area_ha": 3.433, "land_use": "Fallow", "crop": "", "soil_type": "Alluvial Clay Loam", "irrigation": "None", "village": "Kundam", "tehsil": "Kundam", "district": "Jabalpur"}, "geometry": {"type": "Polygon", "coordinates": [[[80.359494, 23.220787], [80.359099, 23.219609], [80.35974, 23.217759], [80.361985, 23.21816], [80.36329, 23.219453], [80.362542, 23.220473], [80.359494, 23.220787]]]}}, {"type": "Feature", "properties": {"khasra": "KHA097", "owner": "Jagdish Choudhary", "area_sqm": 11112.0, "area_ha": 1.111, "land_use": "Agriculture", "crop": "Gram", "soil_type": "Alluvial Clay Loam", "irrigation": "Drip", "village": "Kundam", "tehsil": "Kundam", "district": "Jabalpur"}, "geometry": {"type": "Polygon", "coordinates": [[[80.36391, 23.220556], [80.362645, 23.220473], [80.361838, 23.219875], [80.361898, 23.218693], [80.362961, 23.21843], [80.363753, 23.218825], [80.364228, 23.219637], [80.36391, 23.220556]]]}}, {"type": "Feature", "properties": {"khasra": "KHA098", "owner": "Kishore Rawat", "area_sqm": 46562.0, "area_ha": 4.656, "land_use": "Fallow", "crop": "", "soil_type": "Alluvial Clay Loam", "irrigation": "Tube Well", "village": "Kundam", "tehsil": "Kundam", "district": "Jabalpur"}, "geometry": {"type": "Polygon", "coordinates": [[[80.33856, 23.219786], [80.340111, 23.220553], [80.34076, 23.222364], [80.339224, 23.223062], [80.33749, 23.221345], [80.33856, 23.219786]]]}}, {"type": "Feature", "properties": {"khasra": "KHA099", "owner": "Sunil Agrawal", "area_sqm": 19765.0, "area_ha": 1.977, "land_use": "Agriculture", "crop": "Pigeonpea", "soil_type": "Alluvial Clay Loam", "irrigation": "Tube Well", "village": "Kundam", "tehsil": "Kundam", "district": "Jabalpur"}, "geometry": {"type": "Polygon", "coordinates": [[[80.339185, 23.220907], [80.340426, 23.219715], [80.342314, 23.220173], [80.342216, 23.221205], [80.341446, 23.221922], [80.339611, 23.221921], [80.339185, 23.220907]]]}}, {"type": "Feature", "properties": {"khasra": "KHA100", "owner": "Shyam Patel", "area_sqm": 51453.0, "area_ha": 5.145, "land_use": "Agriculture", "crop": "Wheat", "soil_type": "Sandy Loam", "irrigation": "Canal", "village": "Kundam", "tehsil": "Kundam", "district": "Jabalpur"}, "geometry": {"type": "Polygon", "coordinates": [[[80.340616, 23.220721], [80.342192, 23.21968], [80.343702, 23.219335], [80.345103, 23.22074], [80.344209, 23.222799], [80.341934, 23.222567], [80.340616, 23.220721]]]}}, {"type": "Feature", "properties": {"khasra": "KHA101", "owner": "Ram Pandey", "area_sqm": 26802.0, "area_ha": 2.68, "land_use": "Agriculture", "crop": "Mustard", "soil_type": "Deep Black Soil", "irrigation": "Rainfed", "village": "Kundam", "tehsil": "Kundam", "district": "Jabalpur"}, "geometry": {"type": "Polygon", "coordinates": [[[80.345177, 23.222397], [80.343254, 23.221648], [80.343951, 23.220008], [80.345577, 23.220229], [80.346168, 23.221326], [80.345177, 23.222397]]]}}, {"type": "Feature", "properties": {"khasra": "KHA102", "owner": "Shyam Sharma", "area_sqm": 26261.0, "area_ha": 2.626, "land_use": "Barren", "crop": "", "soil_type": "Alluvial Clay Loam", "irrigation": "Canal", "village": "Kundam", "tehsil": "Kundam", "district": "Jabalpur"}, "geometry": {"type": "Polygon", "coordinates": [[[80.347142, 23.220038], [80.348633, 23.2209], [80.34712, 23.222261], [80.345806, 23.221858], [80.345617, 23.220293], [80.347142, 23.220038]]]}}, {"type": "Feature", "properties": {"khasra": "KHA103", "owner": "Amit Dwivedi", "area_sqm": 74306.0, "area_ha": 7.431, "land_use": "Agriculture", "crop": "Sugarcane", "soil_type": "Alluvial Clay Loam", "irrigation": "Canal", "village": "Kundam", "tehsil": "Kundam", "district": "Jabalpur"}, "geometry": {"type": "Polygon", "coordinates": [[[80.347069, 23.221783], [80.3489, 23.219801], [80.351211, 23.221351], [80.348813, 23.222906], [80.347069, 23.221783]]]}}, {"type": "Feature", "properties": {"khasra": "KHA104", "owner": "Lal Prajapati", "area_sqm": 5478.0, "area_ha": 0.548, "land_use": "Built-up", "crop": "", "soil_type": "Medium Black Soil", "irrigation": "Canal", "village": "Kundam", "tehsil": "Kundam", "district": "Jabalpur"}, "geometry": {"type": "Polygon", "coordinates": [[[80.351636, 23.220719], [80.351834, 23.221805], [80.350713, 23.22179], [80.35005, 23.221444], [80.35024, 23.220435], [80.351093, 23.220332], [80.351636, 23.220719]]]}}, {"type": "Feature", "properties": {"khasra": "KHA105", "owner": "Mahesh Rawat", "area_sqm": 42748.0, "area_ha": 4.275, "land_use": "Agriculture", "crop": "Pigeonpea", "soil_type": "Medium Black Soil", "irrigation": "Tube Well", "village": "Kundam", "tehsil": "Kundam", "district": "Jabalpur"}, "geometry": {"type": "Polygon", "coordinates": [[[80.353788, 23.223113], [80.352579, 23.220966], [80.352916, 23.219832], [80.355093, 23.219411], [80.357035, 23.220171], [80.356917, 23.221989], [80.35586, 23.222475], [80.353788, 23.223113]]]}}, {"type": "Feature", "properties": {"khasra": "KHA106", "owner": "Mahesh Kushwaha", "area_sqm": 14101.0, "area_ha": 1.41, "land_use": "Agriculture", "crop": "Gram", "soil_type": "Deep Black Soil", "irrigation": "Tube Well", "village": "Kundam", "tehsil": "Kundam", "district": "Jabalpur"}, "geometry": {"type": "Polygon", "coordinates": [[[80.35784, 23.220721], [80.358116, 23.221441], [80.357117, 23.22206], [80.356484, 23.221927], [80.355717, 23.221266], [80.356275, 23.220365], [80.357216, 23.220164], [80.35784, 23.220721]]]}}, {"type": "Feature", "properties": {"khasra": "KHA107", "owner": "Ravi Lodhi", "area_sqm": 31217.0, "area_ha": 3.122, "land_use": "Agriculture", "crop": "Pigeonpea", "soil_type": "Sandy Loam", "irrigation": "None", "village": "Kundam", "tehsil": "Kundam", "district": "Jabalpur"}, "geometry": {"type": "Polygon", "coordinates": [[[80.362774, 23.221521], [80.361702, 23.222659], [80.359922, 23.222055], [80.359463, 23.221076], [80.360101, 23.220557], [80.36121, 23.219526], [80.362614, 23.220234], [80.362774, 23.221521]]]}}, {"type": "Feature", "properties": {"khasra": "KHA108", "owner": "Ram Dubey", "area_sqm": 18186.0, "area_ha": 1.819, "land_use": "Barren", "crop": "", "soil_type": "Alluvial Clay Loam", "irrigation": "None", "village": "Kundam", "tehsil": "Kundam", "district": "Jabalpur"}, "geometry": {"type": "Polygon", "coordinates": [[[80.363624, 23.222441], [80.361389, 23.222211], [80.361008, 23.220203], [80.362325, 23.219817], [80.364405, 23.22019], [80.364413, 23.221704], [80.363624, 23.222441]]]}}, {"type": "Feature", "properties": {"khasra": "KHA109", "owner": "Lal Mishra", "area_sqm": 54583.0, "area_ha": 5.458, "land_use": "Agriculture", "crop": "Sugarcane", "soil_type": "Deep Black Soil", "irrigation": "None", "village": "Kundam", "tehsil": "Kundam", "district": "Jabalpur"}, "geometry": {"type": "Polygon", "coordinates": [[[80.338396, 23.221385], [80.339191, 23.223822], [80.336113, 23.224789], [80.334812, 23.221443], [80.338396, 23.221385]]]}}, {"type": "Feature", "properties": {"khasra": "KHA110", "owner": "Amit Agrawal", "area_sqm": 21151.0, "area_ha": 2.115, "land_use": "Agriculture", "crop": "Pigeonpea", "soil_type": "Alluvial Clay Loam", "irrigation": "Canal", "village": "Kundam", "tehsil": "Kundam", "district": "Jabalpur"}, "geometry": {"type": "Polygon", "coordinates": [[[80.338026, 23.224163], [80.337366, 23.222077], [80.340251, 23.221626], [80.340583, 23.224095], [80.338026, 23.224163]]]}}, {"type": "Feature", "properties": {"khasra": "KHA111", "owner": "Sunil Dubey", "area_sqm": 26938.0, "area_ha": 2.694, "land_use": "Forest Scrub", "crop": "", "soil_type": "Alluvial Clay Loam", "irrigation": "Rainfed", "village": "Kundam", "tehsil": "Kundam", "district": "Jabalpur"}, "geometry": {"type": "Polygon", "coordinates": [[[80.339188, 23.222088], [80.341418, 23.221407], [80.342202, 23.222581], [80.34202, 23.223865], [80.339821, 23.223304], [80.339188, 23.222088]]]}}, {"type": "Feature", "properties": {"khasra": "KHA112", "owner": "Vijay Rawat", "area_sqm": 30750.0, "area_ha": 3.075, "land_use": "Agriculture", "crop": "Gram", "soil_type": "Deep Black Soil", "irrigation": "None", "village": "Kundam", "tehsil": "Kundam", "district": "Jabalpur"}, "geometry": {"type": "Polygon", "coordinates": [[[80.341972, 23.223747], [80.341208, 23.221989], [80.343784, 23.221195], [80.344447, 23.223829], [80.341972, 23.223747]]]}}, {"type": "Feature", "properties": {"khasra": "KHA113", "owner": "Sohan Gupta", "area_sqm": 44760.0, "area_ha": 4.476, "land_use": "Agriculture", "crop": "Maize", "soil_type": "Alluvial Clay Loam", "irrigation": "Drip", "village": "Kundam", "tehsil": "Kundam", "district": "Jabalpur"}, "geometry": {"type": "Polygon", "coordinates": [[[80.345766, 23.224847], [80.343227, 23.224481], [80.342851, 23.222166], [80.34406, 23.221668], [80.345332, 23.221124], [80.347704, 23.222305], [80.34728, 23.224116], [80.345766, 23.224847]]]}}, {"type": "Feature", "properties": {"khasra": "KHA114", "owner": "Lal Saket", "area_sqm": 30013.0, "area_ha": 3.001, "land_use": "Agriculture", "crop": "Soybean", "soil_type": "Alluvial Clay Loam", "irrigation": "Tube Well", "village": "Kundam", "tehsil": "Kundam", "district": "Jabalpur"}, "geometry": {"type": "Polygon", "coordinates": [[[80.348869, 23.222569], [80.348598, 23.224021], [80.346209, 23.224451], [80.345429, 23.222919], [80.346164, 23.221919], [80.347124, 23.221651], [80.348869, 23.222569]]]}}, {"type": "Feature", "properties": {"khasra": "KHA115", "owner": "Mahesh Dwivedi", "area_sqm": 24808.0, "area_ha": 2.481, "land_use": "Barren", "crop": "", "soil_type": "Deep Black Soil", "irrigation": "Tube Well", "village": "Kundam", "tehsil": "Kundam", "district": "Jabalpur"}, "geometry": {"type": "Polygon", "coordinates": [[[80.347725, 23.22371], [80.348237, 23.222165], [80.349014, 23.221824], [80.350549, 23.222415], [80.349553, 23.224083], [80.347725, 23.22371]]]}}, {"type": "Feature", "properties": {"khasra": "KHA116", "owner": "Dinesh Dwivedi", "area_sqm": 28733.0, "area_ha": 2.873, "land_use": "Agriculture", "crop": "Maize", "soil_type": "Deep Black Soil", "irrigation": "Canal", "village": "Kundam", "tehsil": "Kundam", "district": "Jabalpur"}, "geometry": {"type": "Polygon", "coordinates": [[[80.350354, 23.221667], [80.352113, 23.221205], [80.352269, 23.22241], [80.352403, 23.223511], [80.350598, 23.224394], [80.349329, 23.223509], [80.349108, 23.222365], [80.350354, 23.221667]]]}}, {"type": "Feature", "properties": {"khasra": "KHA117", "owner": "Ajay Sahu", "area_sqm": 23062.0, "area_ha": 2.306, "land_use": "Agriculture", "crop": "Pigeonpea", "soil_type": "Alluvial Clay Loam", "irrigation": "Tube Well", "village": "Kundam", "tehsil": "Kundam", "district": "Jabalpur"}, "geometry": {"type": "Polygon", "coordinates": [[[80.353311, 23.221595], [80.354599, 23.222084], [80.354352, 23.224002], [80.352167, 23.223615], [80.351529, 23.222264], [80.353311, 23.221595]]]}}, {"type": "Feature", "properties": {"khasra": "KHA118", "owner": "Ravi Agrawal", "area_sqm": 33635.0, "area_ha": 3.363, "land_use": "Barren", "crop": "", "soil_type": "Sandy Loam", "irrigation": "Tube Well", "village": "Kundam", "tehsil": "Kundam", "district": "Jabalpur"}, "geometry": {"type": "Polygon", "coordinates": [[[80.353603, 23.222407], [80.354491, 23.221145], [80.356852, 23.222592], [80.356794, 23.223797], [80.353658, 23.224159], [80.353603, 23.222407]]]}}, {"type": "Feature", "properties": {"khasra": "KHA119", "owner": "Rajesh Sharma", "area_sqm": 13381.0, "area_ha": 1.338, "land_use": "Built-up", "crop": "", "soil_type": "Medium Black Soil", "irrigation": "Drip", "village": "Kundam", "tehsil": "Kundam", "district": "Jabalpur"}, "geometry": {"type": "Polygon", "coordinates": [[[80.359746, 23.221955], [80.360406, 23.222639], [80.360126, 23.223964], [80.359155, 23.224022], [80.357552, 23.223751], [80.357219, 23.222365], [80.358588, 23.222018], [80.359746, 23.221955]]]}}, {"type": "Feature", "properties": {"khasra": "KHA120", "owner": "Dinesh Dubey", "area_sqm": 20020.0, "area_ha": 2.002, "land_use": "Road", "crop": "", "soil_type": "Alluvial Clay Loam", "irrigation": "Tube Well", "village": "Kundam", "tehsil": "Kundam", "district": "Jabalpur"}, "geometry": {"type": "Polygon", "coordinates": [[[80.362349, 23.222444], [80.361591, 23.223733], [80.359444, 23.22372], [80.359519, 23.221833], [80.360724, 23.221361], [80.362349, 23.222444]]]}}, {"type": "Feature", "properties": {"type": "road", "name": "Village Road"}, "geometry": {"type": "LineString", "coordinates": [[80.338, 23.211000000000002], [80.345, 23.214000000000002], [80.35, 23.216], [80.35799999999999, 23.219], [80.36399999999999, 23.222]]}}, {"type": "Feature", "properties": {"type": "road", "name": "Link Road"}, "geometry": {"type": "LineString", "coordinates": [[80.347, 23.226000000000003], [80.35, 23.216], [80.354, 23.208000000000002]]}}, {"type": "Feature", "properties": {"type": "water_body", "name": "Talab"}, "geometry": {"type": "Polygon", "coordinates": [[[80.343659, 23.218259], [80.344554, 23.218319], [80.345351, 23.219494], [80.34442, 23.220147], [80.342562, 23.219241], [80.343659, 23.218259]]]}}, {"type": "Feature", "properties": {"type": "water_body", "name": "Village Pond"}, "geometry": {"type": "Polygon", "coordinates": [[[80.352213, 23.21936], [80.352529, 23.218745], [80.353723, 23.21846], [80.353872, 23.219693], [80.353106, 23.219847], [80.352213, 23.21936]]]}}, {"type": "Feature", "properties": {"type": "water_body", "name": "Talab"}, "geometry": {"type": "Polygon", "coordinates": [[[80.341154, 23.214434], [80.340689, 23.213166], [80.34207, 23.212727], [80.343742, 23.213478], [80.34234, 23.215216], [80.341154, 23.214434]]]}}, {"type": "Feature", "properties": {"type": "water_body", "name": "Village Pond"}, "geometry": {"type": "Polygon", "coordinates": [[[80.357167, 23.208392], [80.357962, 23.208721], [80.358273, 23.209467], [80.357462, 23.210092], [80.356714, 23.20984], [80.355953, 23.209388], [80.356256, 23.208945], [80.357167, 23.208392]]]}}, {"type": "Feature", "properties": {"type": "water_body", "name": "Talab"}, "geometry": {"type": "Polygon", "coordinates": [[[80.355596, 23.212092], [80.35575, 23.213254], [80.354243, 23.213621], [80.354204, 23.21257], [80.354842, 23.21187], [80.355596, 23.212092]]]}}]}